JY1SAT (JO-97)          
1 43803U 18099AX  26068.68634132  .00017774  00000+0  60804-3 0  9996
2 43803  97.4249 131.3625 0004723 256.6795 103.3919 15.30302628398390
STARLINK-34349          
1 64215U 25117N   26068.35462550  .00027383  00000+0  93325-3 0  9993
2 64215  53.1600  41.2132 0001390 100.6310 259.4847 15.30200792 44479
